[{"OBJECT_NAME":"OBJECT F","OBJECT_ID":"2023-091F","EPOCH":"2026-03-09T22:26:06.799488","MEAN_MOTION":15.22515502,"ECCENTRICITY":0.0012878,"INCLINATION":97.5231,"RA_OF_ASC_NODE":130.3577,"ARG_OF_PERICENTER":100.6008,"MEAN_ANOMALY":259.6679,"EPHEMERIS_TYPE":0,"CLASSIFICATION_TYPE":"U","NORAD_CAT_ID":57171,"ELEMENT_SET_NO":999,"REV_AT_EPOCH":14905,"BSTAR":0.00043192506,"MEAN_MOTION_DOT":9.968e-5,"MEAN_MOTION_DDOT":0},{"OBJECT_NAME":"LEMUR-2-DEANANDMAEVE","OBJECT_ID":"2025-276N","EPOCH":"2026-03-08T19:03:57.862944","MEAN_MOTION":15.18340037,"ECCENTRICITY":0.00056277,"INCLINATION":97.4282,"RA_OF_ASC_NODE":143.0037,"ARG_OF_PERICENTER":4.7019,"MEAN_ANOMALY":355.4267,"EPHEMERIS_TYPE":0,"CLASSIFICATION_TYPE":"U","NORAD_CAT_ID":66678,"ELEMENT_SET_NO":999,"REV_AT_EPOCH":1517,"BSTAR":0.00054058789,"MEAN_MOTION_DOT":0.00011044,"MEAN_MOTION_DDOT":0}]
